{
  "type": "FeatureCollection",
  "features": [
    {
      "type": "Feature",
      "properties": {
        "norad_id": 35065,
        "name": "COSMOS 2251 DEB",
        "group": "cosmos-2251-debris",
        "lat": 73.85991375438836,
        "lon": -83.61118313816755,
        "alt_km": 741.0020526891476,
        "timestamp": "2025-12-12T16:50:33.542448+00:00",
        "meta_object_name": "COSMOS 2251 DEB",
        "meta_object_id": "1993-036AHU",
        "meta_epoch": "2025-12-08T21:05:49.871616",
        "meta_mean_motion": 14.4570853,
        "meta_eccentricity": 0.0019714,
        "meta_inclination": 74.0196,
        "meta_ra_of_asc_node": 201.5431,
        "meta_arg_of_pericenter": 327.1177,
        "meta_mean_anomaly": 32.8753,
        "meta_ephemeris_type": 0,
        "meta_classification_type": "U",
        "meta_norad_cat_id": 35065,
        "meta_element_set_no": 999,
        "meta_rev_at_epoch": 68295,
        "meta_bstar": 0.00050947,
        "meta_mean_motion_dot": 1.782e-05,
        "meta_mean_motion_ddot": 0,
        "tle_line1": "1 35065U 93036AHU 25342.87904944  .00001782  00000+0  50947-3 0  9996",
        "tle_line2": "2 35065  74.0196 201.5431 0019714 327.1177  32.8753 14.45708530682959"
      },
      "geometry": {
        "type": "Point",
        "coordinates": [
          -83.61118313816755,
          73.85991375438836
        ]
      }
    },
    {
      "type": "Feature",
      "properties": {
        "norad_id": 35071,
        "name": "COSMOS 2251 DEB",
        "group": "cosmos-2251-debris",
        "lat": -57.48878223542293,
        "lon": 146.63003569367987,
        "alt_km": 594.1893509007505,
        "timestamp": "2025-12-12T16:50:33.542458+00:00",
        "meta_object_name": "COSMOS 2251 DEB",
        "meta_object_id": "1993-036AJA",
        "meta_epoch": "2025-12-11T20:21:16.221024",
        "meta_mean_motion": 15.03424609,
        "meta_eccentricity": 0.00684253,
        "meta_inclination": 73.9323,
        "meta_ra_of_asc_node": 175.2711,
        "meta_arg_of_pericenter": 72.0374,
        "meta_mean_anomaly": 288.8257,
        "meta_ephemeris_type": 0,
        "meta_classification_type": "U",
        "meta_norad_cat_id": 35071,
        "meta_element_set_no": 999,
        "meta_rev_at_epoch": 67523,
        "meta_bstar": 0.00096830833,
        "meta_mean_motion_dot": 0.00013858,
        "meta_mean_motion_ddot": 0,
        "tle_line1": "1 35071U 93036AJA 25345.84810441  .00013858  00000+0  96831-3 0  9990",
        "tle_line2": "2 35071  73.9323 175.2711 0068425  72.0374 288.8257 15.03424609675234"
      },
      "geometry": {
        "type": "Point",
        "coordinates": [
          146.63003569367987,
          -57.48878223542293
        ]
      }
    },
    {
      "type": "Feature",
      "properties": {
        "norad_id": 35073,
        "name": "COSMOS 2251 DEB",
        "group": "cosmos-2251-debris",
        "lat": 44.565793561975525,
        "lon": -12.928224872265197,
        "alt_km": 554.0840242981612,
        "timestamp": "2025-12-12T16:50:33.542469+00:00",
        "meta_object_name": "COSMOS 2251 DEB",
        "meta_object_id": "1993-036AJC",
        "meta_epoch": "2025-12-10T16:37:50.806560",
        "meta_mean_motion": 15.00404336,
        "meta_eccentricity": 0.00107016,
        "meta_inclination": 74.0016,
        "meta_ra_of_asc_node": 334.7492,
        "meta_arg_of_pericenter": 76.0723,
        "meta_mean_anomaly": 284.1653,
        "meta_ephemeris_type": 0,
        "meta_classification_type": "U",
        "meta_norad_cat_id": 35073,
        "meta_element_set_no": 999,
        "meta_rev_at_epoch": 67448,
        "meta_bstar": 0.0043502619,
        "meta_mean_motion_dot": 0.00055148,
        "meta_mean_motion_ddot": 0,
        "tle_line1": "1 35073U 93036AJC 25344.69294915  .00055148  00000+0  43503-2 0  9991",
        "tle_line2": "2 35073  74.0016 334.7492 0010701  76.0723 284.1653 15.00404336674488"
      },
      "geometry": {
        "type": "Point",
        "coordinates": [
          -12.928224872265197,
          44.565793561975525
        ]
      }
    },
    {
      "type": "Feature",
      "properties": {
        "norad_id": 35284,
        "name": "COSMOS 2251 DEB",
        "group": "cosmos-2251-debris",
        "lat": 35.31267515111338,
        "lon": 72.80534182786354,
        "alt_km": 772.705459301068,
        "timestamp": "2025-12-12T16:50:33.542479+00:00",
        "meta_object_name": "COSMOS 2251 DEB",
        "meta_object_id": "1993-036AJN",
        "meta_epoch": "2025-12-11T12:36:30.542400",
        "meta_mean_motion": 14.38316207,
        "meta_eccentricity": 0.001676,
        "meta_inclination": 74.0493,
        "meta_ra_of_asc_node": 266.6592,
        "meta_arg_of_pericenter": 343.4318,
        "meta_mean_anomaly": 190.4692,
        "meta_ephemeris_type": 0,
        "meta_classification_type": "U",
        "meta_norad_cat_id": 35284,
        "meta_element_set_no": 999,
        "meta_rev_at_epoch": 65508,
        "meta_bstar": 0.00029322355,
        "meta_mean_motion_dot": 8.68e-06,
        "meta_mean_motion_ddot": 0,
        "tle_line1": "1 35284U 93036AJN 25345.52535350  .00000868  00000+0  29322-3 0  9992",
        "tle_line2": "2 35284  74.0493 266.6592 0016760 343.4318 190.4692 14.38316207655083"
      },
      "geometry": {
        "type": "Point",
        "coordinates": [
          72.80534182786354,
          35.31267515111338
        ]
      }
    },
    {
      "type": "Feature",
      "properties": {
        "norad_id": 35287,
        "name": "COSMOS 2251 DEB",
        "group": "cosmos-2251-debris",
        "lat": -39.51624982327865,
        "lon": -97.45603384134594,
        "alt_km": 769.2838001255222,
        "timestamp": "2025-12-12T16:50:33.542490+00:00",
        "meta_object_name": "COSMOS 2251 DEB",
        "meta_object_id": "1993-036AJR",
        "meta_epoch": "2025-12-12T06:01:57.527328",
        "meta_mean_motion": 14.36375828,
        "meta_eccentricity": 0.00175489,
        "meta_inclination": 74.0306,
        "meta_ra_of_asc_node": 277.0329,
        "meta_arg_of_pericenter": 13.8643,
        "meta_mean_anomaly": 136.8001,
        "meta_ephemeris_type": 0,
        "meta_classification_type": "U",
        "meta_norad_cat_id": 35287,
        "meta_element_set_no": 999,
        "meta_rev_at_epoch": 86885,
        "meta_bstar": 0.00023319897,
        "meta_mean_motion_dot": 6.58e-06,
        "meta_mean_motion_ddot": 0,
        "tle_line1": "1 35287U 93036AJR 25346.25136027  .00000658  00000+0  23320-3 0  9993",
        "tle_line2": "2 35287  74.0306 277.0329 0017548  13.8643 136.8001 14.36375828868858"
      },
      "geometry": {
        "type": "Point",
        "coordinates": [
          -97.45603384134594,
          -39.51624982327865
        ]
      }
    },
    {
      "type": "Feature",
      "properties": {
        "norad_id": 35288,
        "name": "COSMOS 2251 DEB",
        "group": "cosmos-2251-debris",
        "lat": 68.13815536166751,
        "lon": 149.40396384001096,
        "alt_km": 691.0275022017986,
        "timestamp": "2025-12-12T16:50:33.542500+00:00",
        "meta_object_name": "COSMOS 2251 DEB",
        "meta_object_id": "1993-036AJS",
        "meta_epoch": "2025-12-10T08:39:21.633984",
        "meta_mean_motion": 14.65413781,
        "meta_eccentricity": 0.00395397,
        "meta_inclination": 73.951,
        "meta_ra_of_asc_node": 19.7768,
        "meta_arg_of_pericenter": 253.6203,
        "meta_mean_anomaly": 106.0616,
        "meta_ephemeris_type": 0,
        "meta_classification_type": "U",
        "meta_norad_cat_id": 35288,
        "meta_element_set_no": 999,
        "meta_rev_at_epoch": 87843,
        "meta_bstar": 0.0015164998,
        "meta_mean_motion_dot": 8.275e-05,
        "meta_mean_motion_ddot": 0,
        "tle_line1": "1 35288U 93036AJS 25344.36066706  .00008275  00000+0  15165-2 0  9990",
        "tle_line2": "2 35288  73.9510  19.7768 0039539 253.6203 106.0616 14.65413781878431"
      },
      "geometry": {
        "type": "Point",
        "coordinates": [
          149.40396384001096,
          68.13815536166751
        ]
      }
    },
    {
      "type": "Feature",
      "properties": {
        "norad_id": 35290,
        "name": "COSMOS 2251 DEB",
        "group": "cosmos-2251-debris",
        "lat": 21.328117256183372,
        "lon": 65.93958302936669,
        "alt_km": 629.300827959597,
        "timestamp": "2025-12-12T16:50:33.542511+00:00",
        "meta_object_name": "COSMOS 2251 DEB",
        "meta_object_id": "1993-036AJU",
        "meta_epoch": "2025-12-11T13:10:12.161568",
        "meta_mean_motion": 14.80329109,
        "meta_eccentricity": 0.00023731,
        "meta_inclination": 74.0048,
        "meta_ra_of_asc_node": 61.7847,
        "meta_arg_of_pericenter": 200.4054,
        "meta_mean_anomaly": 159.7028,
        "meta_ephemeris_type": 0,
        "meta_classification_type": "U",
        "meta_norad_cat_id": 35290,
        "meta_element_set_no": 999,
        "meta_rev_at_epoch": 87940,
        "meta_bstar": 0.0031349739,
        "meta_mean_motion_dot": 0.00023959,
        "meta_mean_motion_ddot": 0,
        "tle_line1": "1 35290U 93036AJU 25345.54875187  .00023959  00000+0  31350-2 0  9995",
        "tle_line2": "2 35290  74.0048  61.7847 0002373 200.4054 159.7028 14.80329109879404"
      },
      "geometry": {
        "type": "Point",
        "coordinates": [
          65.93958302936669,
          21.328117256183372
        ]
      }
    }
  ]
}